H1 CPF 01  gfz 2021 07 29 12  7102 terrasarx 
H2 0702601  6201 31698    2021 07 29 12 59 42 2021 08 03 00 00 42   120 1 1  0 0 0
H9
10 0 59424  79902.000000  0    1181424.794   -350466.431  -6784064.096
10 0 59424  80022.000000  0    1563213.815  -1167913.156  -6613164.284
10 0 59424  80142.000000  0    1903740.923  -1971449.248  -6326890.039
10 0 59424  80262.000000  0    2197459.801  -2746365.128  -5930171.662
10 0 59424  80382.000000  0    2439875.526  -3478333.325  -5429855.022
10 0 59424  80502.000000  0    2627615.083  -4153674.323  -4834594.465
10 0 59424  80622.000000  0    2758474.908  -4759613.569  -4154712.076
10 0 59424  80742.000000  0    2831445.277  -5284526.501  -3402029.628
10 0 59424  80862.000000  0    2846711.154  -5718170.139  -2589672.281
10 0 59424  80982.000000  0    2805628.916  -6051892.526  -1731844.272
10 0 59424  81102.000000  0    2710679.598  -6278815.596   -843581.759
10 0 59424  81222.000000  0    2565397.222  -6393985.814     59514.844
10 0 59424  81342.000000  0    2374274.456  -6394486.406    961561.253
10 0 59424  81462.000000  0    2142649.047  -6279510.745   1846676.329
10 0 59424  81582.000000  0    1876572.257  -6050392.536   2699272.179
10 0 59424  81702.000000  0    1582663.227  -5710591.290   3504336.758
10 0 59424  81822.000000  0    1267953.470  -5265635.739   4247703.899
10 0 59424  81942.000000  0     939725.447  -4723026.990   4916305.469
10 0 59424  82062.000000  0     605349.238  -4092104.521   5498402.716
10 0 59424  82182.000000  0     272120.333  -3383875.166   5983791.233
10 0 59424  82302.000000  0     -52895.943  -2610811.170   6363974.331
10 0 59424  82422.000000  0    -363011.249  -1786624.542   6632304.472
10 0 59424  82542.000000  0    -652049.031   -926021.158   6784093.488
10 0 59424  82662.000000  0    -914465.697    -44436.806   6816690.659
10 0 59424  82782.000000  0   -1145455.971    842240.430   6729526.366
10 0 59424  82902.000000  0   -1341040.420   1717956.084   6524121.040
10 0 59424  83022.000000  0   -1498133.896   2566779.165   6204060.355
10 0 59424  83142.000000  0   -1614594.510   3373192.140   5774936.581
10 0 59424  83262.000000  0   -1689251.828   4122376.273   5244256.074
10 0 59424  83382.000000  0   -1721913.784   4800488.181   4621315.039
10 0 59424  83502.000000  0   -1713352.879   5394922.957   3917041.985
10 0 59424  83622.000000  0   -1665270.545   5894556.988   3143809.447
10 0 59424  83742.000000  0   -1580242.321   6289965.216   2315217.693
10 0 59424  83862.000000  0   -1461643.227   6573608.611   1445853.421
10 0 59424  83982.000000  0   -1313554.030   6739985.806    551027.739
10 0 59424  84102.000000  0   -1140652.266   6785744.690   -353500.055
10 0 59424  84222.000000  0    -948090.639   6709753.152  -1251808.848
10 0 59424  84342.000000  0    -741364.637   6513122.494  -2128107.499
10 0 59424  84462.000000  0    -526174.863   6199182.857  -2967020.109
10 0 59424  84582.000000  0    -308287.532   5773416.204  -3753858.957
10 0 59424  84702.000000  0     -93395.659   5243349.453  -4474882.273
10 0 59424  84822.000000  0     113015.432   4618409.163  -5117531.912
10 0 59424  84942.000000  0     305795.418   3909742.522  -5670646.177
10 0 59424  85062.000000  0     480246.083   3130008.453  -6124645.349
10 0 59424  85182.000000  0     632225.228   2293143.932  -6471686.633
10 0 59424  85302.000000  0     758236.162   1414112.062  -6705787.806
10 0 59424  85422.000000  0     855501.428    508635.776  -6822920.334
10 0 59424  85542.000000  0     922019.283   -407079.464  -6821071.399
10 0 59424  85662.000000  0     956602.413  -1316630.238  -6700274.024
10 0 59424  85782.000000  0     958898.310  -2203701.027  -6462604.815
10 0 59424  85902.000000  0     929391.858  -3052348.484  -6112153.194
10 0 59424  86022.000000  0     869389.304  -3847284.558  -5654960.754
10 0 59424  86142.000000  0     780983.228  -4574151.465  -5098926.113
10 0 59424  86262.000000  0     667000.712  -5219782.625  -4453679.597
10 0 59424  86382.000000  0     530933.816  -5772447.756  -3730427.941
10 0 59425    102.000000  0     376853.902  -6222075.757  -2941768.312
10 0 59425    222.000000  0     209311.648  -6560449.736  -2101475.396
10 0 59425    342.000000  0      33224.802  -6781370.780  -1224263.455
10 0 59425    462.000000  0    -146244.231  -6880783.671   -325526.481
10 0 59425    582.000000  0    -323817.793  -6856860.641    578936.901
10 0 59425    702.000000  0    -494236.173  -6710041.756   1473207.856
10 0 59425    822.000000  0    -652391.265  -6443030.463   2341536.519
10 0 59425    942.000000  0    -793457.122  -6060742.615   3168629.180
10 0 59425   1062.000000  0    -913012.758  -5570209.274   3939926.155
10 0 59425   1182.000000  0   -1007155.941  -4980438.280   4641861.862
10 0 59425   1302.000000  0   -1072604.781  -4302239.500   5262104.816
10 0 59425   1422.000000  0   -1106783.821  -3548017.613   5789774.002
10 0 59425   1542.000000  0   -1107893.945  -2731534.793   6215627.241
10 0 59425   1662.000000  0   -1074963.218  -1867651.333   6532215.758
10 0 59425   1782.000000  0   -1007878.862   -972052.113   6734007.625
10 0 59425   1902.000000  0    -907400.882    -60959.757   6817479.747
10 0 59425   2022.000000  0    -775156.260    849159.675   6781175.362
10 0 59425   2142.000000  0    -613612.419   1741893.781   6625728.253
10 0 59425   2262.000000  0    -426031.102   2601179.338   6353852.265
10 0 59425   2382.000000  0    -216403.750   3411591.179   5970296.831
10 0 59425   2502.000000  0      10630.155   4158620.941   5481769.044
10 0 59425   2622.000000  0     249881.051   4828940.490   4896822.075
10 0 59425   2742.000000  0     495722.438   5410646.918   4225712.030
10 0 59425   2862.000000  0     742215.720   5893481.408   3480220.507
10 0 59425   2982.000000  0     983244.626   6269018.961   2673454.555
10 0 59425   3102.000000  0    1212659.242   6530830.866   1819613.661
10 0 59425   3222.000000  0    1424421.229   6674600.357    933733.843
10 0 59425   3342.000000  0    1612749.382   6698199.130     31415.999
10 0 59425   3462.000000  0    1772261.305   6601718.797   -871456.892
10 0 59425   3582.000000  0    1898106.932   6387458.226  -1759007.348
10 0 59425   3702.000000  0    1986091.355   6059867.587  -2615649.854
10 0 59425   3822.000000  0    2032783.749   5625450.058  -3426370.698
10 0 59425   3942.000000  0    2035609.664   5092623.342  -4176995.026
10 0 59425   4062.000000  0    1992924.347   4471544.584  -4854434.343
10 0 59425   4182.000000  0    1904065.455   3773905.428  -5446909.637
10 0 59425   4302.000000  0    1769385.302   3012703.170  -5944148.050
10 0 59425   4422.000000  0    1590261.242   2201991.865  -6337551.169
10 0 59425   4542.000000  0    1369084.858   1356619.813  -6620331.571
10 0 59425   4662.000000  0    1109231.404    491959.084  -6787619.422
10 0 59425   4782.000000  0     815008.288   -376370.548  -6836538.037
10 0 59425   4902.000000  0     491583.990  -1232778.531  -6766247.060
10 0 59425   5022.000000  0     144899.196  -2061975.939  -6577953.756
10 0 59425   5142.000000  0    -218438.659  -2849240.467  -6274895.588
10 0 59425   5262.000000  0    -591277.848  -3580674.398  -5862291.939
10 0 59425   5382.000000  0    -966058.347  -4243448.094  -5347262.527
10 0 59425   5502.000000  0   -1334959.937  -4826026.776  -4738716.394
10 0 59425   5622.000000  0   -1690060.927  -5318377.439  -4047209.296
10 0 59425   5742.000000  0   -2023504.223  -5712150.440  -3284770.334
10 0 59425   5862.000000  0   -2327666.947  -6000831.521  -2464700.240
10 0 59425   5982.000000  0   -2595330.137  -6179861.194  -1601343.987
10 0 59425   6102.000000  0   -2819844.596  -6246718.157   -709840.240
10 0 59425   6222.000000  0   -2995288.534  -6200962.646    194148.349
10 0 59425   6342.000000  0   -3116612.200  -6044237.312   1094717.347
10 0 59425   6462.000000  0   -3179765.946  -5780226.252   1976008.998
10 0 59425   6582.000000  0   -3181808.203  -5414572.205   2822500.817
10 0 59425   6702.000000  0   -3120990.362  -4954754.484   3619286.897
10 0 59425   6822.000000  0   -2996816.537  -4409931.510   4352346.366
10 0 59425   6942.000000  0   -2810077.400  -3790751.593   5008793.445
10 0 59425   7062.000000  0   -2562857.567  -3109136.803   5577104.345
10 0 59425   7182.000000  0   -2258515.166  -2378045.837   6047316.723
10 0 59425   7302.000000  0   -1901635.725  -1611222.687   6411199.564
10 0 59425   7422.000000  0   -1497960.772   -822934.369   6662392.946
10 0 59425   7542.000000  0   -1054292.737    -27701.668   6796512.047
10 0 59425   7662.000000  0    -578380.187    759967.539   6811217.164
10 0 59425   7782.000000  0     -78782.738   1525842.034   6706252.978
10 0 59425   7902.000000  0     435282.788   2256224.193   6483452.923
10 0 59425   8022.000000  0     954112.064   2938194.832   6146708.606
10 0 59425   8142.000000  0    1467695.345   3559842.168   5701906.196
10 0 59425   8262.000000  0    1965909.528   4110473.128   5156829.517
10 0 59425   8382.000000  0    2438717.888   4580802.688   4521030.193
10 0 59425   8502.000000  0    2876373.413   4963116.583   3805664.552
10 0 59425   8622.000000  0    3269619.868   5251403.693   3023302.172
10 0 59425   8742.000000  0    3609890.014   5441459.892   2187707.246
10 0 59425   8862.000000  0    3889493.545   5530953.455   1313590.913
10 0 59425   8982.000000  0    4101787.594   5519452.629    416347.710
10 0 59425   9102.000000  0    4241329.056   5408415.672   -488224.427
10 0 59425   9222.000000  0    4304003.158   5201140.278  -1384210.589
10 0 59425   9342.000000  0    4287125.985   4902677.596  -2255866.677
10 0 59425   9462.000000  0    4189517.408   4519711.566  -3087903.019
10 0 59425   9582.000000  0    4011542.584   4060407.005  -3865757.557
10 0 59425   9702.000000  0    3755121.801   3534230.161  -4575851.071
10 0 59425   9822.000000  0    3423710.528   2951748.354  -5205821.161
10 0 59425   9942.000000  0    3022248.601   2324412.633  -5744731.520
99
